[{"OBJECT_NAME":"GAOFEN-11 03","OBJECT_ID":"2021-107A","EPOCH":"2026-03-09T22:48:17.334432","MEAN_MOTION":15.23762465,"ECCENTRICITY":0.00095153,"INCLINATION":97.2228,"RA_OF_ASC_NODE":116.8716,"ARG_OF_PERICENTER":54.6956,"MEAN_ANOMALY":305.517,"EPHEMERIS_TYPE":0,"CLASSIFICATION_TYPE":"U","NORAD_CAT_ID":49492,"ELEMENT_SET_NO":999,"REV_AT_EPOCH":23952,"BSTAR":0.00031083054,"MEAN_MOTION_DOT":7.418e-5,"MEAN_MOTION_DDOT":0},{"OBJECT_NAME":"FENGYUN 1C DEB","OBJECT_ID":"1999-025BYD","EPOCH":"2026-03-02T20:37:52.103712","MEAN_MOTION":15.19437968,"ECCENTRICITY":0.00147498,"INCLINATION":98.2493,"RA_OF_ASC_NODE":301.6947,"ARG_OF_PERICENTER":10.832,"MEAN_ANOMALY":349.3227,"EPHEMERIS_TYPE":0,"CLASSIFICATION_TYPE":"U","NORAD_CAT_ID":31538,"ELEMENT_SET_NO":999,"REV_AT_EPOCH":68212,"BSTAR":0.0071136993,"MEAN_MOTION_DOT":0.00154158,"MEAN_MOTION_DDOT":0}]
